CCSDS_OMM_VERS = 2.0
CREATION_DATE  = 
ORIGINATOR     = 

OBJECT_NAME    = STARLINK-36059
OBJECT_ID      = 2025-283AC
CENTER_NAME    = EARTH
REF_FRAME      = TEME
TIME_SYSTEM    = UTC
MEAN_ELEMENT_THEORY = SGP/SGP4

EPOCH          = 2025-12-25T06:00:04.000320
MEAN_MOTION    = 15.61837117
ECCENTRICITY   = .00012929
INCLINATION    = 53.1596
RA_OF_ASC_NODE = 11.3578
ARG_OF_PERICENTER = 75.8889
MEAN_ANOMALY   = 45.5010

EPHEMERIS_TYPE = 0
CLASSIFICATION_TYPE = U
NORAD_CAT_ID   = 66904
ELEMENT_SET_NO = 999
REV_AT_EPOCH   = 444
BSTAR          = -.25825304E-1
MEAN_MOTION_DOT = -.2004452E-1
MEAN_MOTION_DDOT = 0

CCSDS_OMM_VERS = 2.0
CREATION_DATE  = 
ORIGINATOR     = 

OBJECT_NAME    = STARLINK-36075
OBJECT_ID      = 2025-283AD
CENTER_NAME    = EARTH
REF_FRAME      = TEME
TIME_SYSTEM    = UTC
MEAN_ELEMENT_THEORY = SGP/SGP4

EPOCH          = 2025-12-25T06:00:04.000320
MEAN_MOTION    = 15.61836701
ECCENTRICITY   = .00013739
INCLINATION    = 53.1598
RA_OF_ASC_NODE = 11.3545
ARG_OF_PERICENTER = 74.8441
MEAN_ANOMALY   = 48.4615

EPHEMERIS_TYPE = 0
CLASSIFICATION_TYPE = U
NORAD_CAT_ID   = 66905
ELEMENT_SET_NO = 999
REV_AT_EPOCH   = 444
BSTAR          = -.25798426E-1
MEAN_MOTION_DOT = -.2002655E-1
MEAN_MOTION_DDOT = 0

CCSDS_OMM_VERS = 2.0
CREATION_DATE  = 
ORIGINATOR     = 

OBJECT_NAME    = 1998-067XS
OBJECT_ID      = 1998-067XS
CENTER_NAME    = EARTH
REF_FRAME      = TEME
TIME_SYSTEM    = UTC
MEAN_ELEMENT_THEORY = SGP/SGP4

EPOCH          = 2025-12-25T05:31:02.274816
MEAN_MOTION    = 15.51241036
ECCENTRICITY   = .00027545
INCLINATION    = 51.6322
RA_OF_ASC_NODE = 80.4463
ARG_OF_PERICENTER = 265.4219
MEAN_ANOMALY   = 94.6456

EPHEMERIS_TYPE = 0
CLASSIFICATION_TYPE = U
NORAD_CAT_ID   = 66906
ELEMENT_SET_NO = 999
REV_AT_EPOCH   = 355
BSTAR          = .49047062E-3
MEAN_MOTION_DOT = .289E-3
MEAN_MOTION_DDOT = 0

CCSDS_OMM_VERS = 2.0
CREATION_DATE  = 
ORIGINATOR     = 

OBJECT_NAME    = 1998-067XT
OBJECT_ID      = 1998-067XT
CENTER_NAME    = EARTH
REF_FRAME      = TEME
TIME_SYSTEM    = UTC
MEAN_ELEMENT_THEORY = SGP/SGP4

EPOCH          = 2025-12-24T10:39:56.166048
MEAN_MOTION    = 15.52879993
ECCENTRICITY   = .00038856
INCLINATION    = 51.6313
RA_OF_ASC_NODE = 84.2012
ARG_OF_PERICENTER = 298.2919
MEAN_ANOMALY   = 61.7678

EPHEMERIS_TYPE = 0
CLASSIFICATION_TYPE = U
NORAD_CAT_ID   = 66907
ELEMENT_SET_NO = 999
REV_AT_EPOCH   = 343
BSTAR          = .10726177E-2
MEAN_MOTION_DOT = .67981E-3
MEAN_MOTION_DDOT = 0

CCSDS_OMM_VERS = 2.0
CREATION_DATE  = 
ORIGINATOR     = 

OBJECT_NAME    = 1998-067XU
OBJECT_ID      = 1998-067XU
CENTER_NAME    = EARTH
REF_FRAME      = TEME
TIME_SYSTEM    = UTC
MEAN_ELEMENT_THEORY = SGP/SGP4

EPOCH          = 2025-12-24T10:38:25.805472
MEAN_MOTION    = 15.52977314
ECCENTRICITY   = .00038638
INCLINATION    = 51.6323
RA_OF_ASC_NODE = 84.1936
ARG_OF_PERICENTER = 296.7785
MEAN_ANOMALY   = 63.2809

EPHEMERIS_TYPE = 0
CLASSIFICATION_TYPE = U
NORAD_CAT_ID   = 66908
ELEMENT_SET_NO = 999
REV_AT_EPOCH   = 343
BSTAR          = .10585814E-2
MEAN_MOTION_DOT = .67317E-3
MEAN_MOTION_DDOT = 0

CCSDS_OMM_VERS = 2.0
CREATION_DATE  = 
ORIGINATOR     = 

OBJECT_NAME    = SILVERSAT
OBJECT_ID      = 1998-067XV
CENTER_NAME    = EARTH
REF_FRAME      = TEME
TIME_SYSTEM    = UTC
MEAN_ELEMENT_THEORY = SGP/SGP4

EPOCH          = 2025-12-24T12:08:54.950784
MEAN_MOTION    = 15.53202951
ECCENTRICITY   = .00038249
INCLINATION    = 51.6310
RA_OF_ASC_NODE = 83.8633
ARG_OF_PERICENTER = 300.8028
MEAN_ANOMALY   = 59.2585

EPHEMERIS_TYPE = 0
CLASSIFICATION_TYPE = U
NORAD_CAT_ID   = 66909
ELEMENT_SET_NO = 999
REV_AT_EPOCH   = 344
BSTAR          = .11617624E-2
MEAN_MOTION_DOT = .74602E-3
MEAN_MOTION_DDOT = 0

CCSDS_OMM_VERS = 2.0
CREATION_DATE  = 
ORIGINATOR     = 

OBJECT_NAME    = 1998-067XW
OBJECT_ID      = 1998-067XW
CENTER_NAME    = EARTH
REF_FRAME      = TEME
TIME_SYSTEM    = UTC
MEAN_ELEMENT_THEORY = SGP/SGP4

EPOCH          = 2025-12-25T05:05:39.018624
MEAN_MOTION    = 15.53228929
ECCENTRICITY   = .00038368
INCLINATION    = 51.6308
RA_OF_ASC_NODE = 80.3284
ARG_OF_PERICENTER = 278.3824
MEAN_ANOMALY   = 81.6731

EPHEMERIS_TYPE = 0
CLASSIFICATION_TYPE = U
NORAD_CAT_ID   = 66910
ELEMENT_SET_NO = 999
REV_AT_EPOCH   = 355
BSTAR          = .10169127E-2
MEAN_MOTION_DOT = .65225E-3
MEAN_MOTION_DDOT = 0

CCSDS_OMM_VERS = 2.0
CREATION_DATE  = 
ORIGINATOR     = 

OBJECT_NAME    = 1998-067XX
OBJECT_ID      = 1998-067XX
CENTER_NAME    = EARTH
REF_FRAME      = TEME
TIME_SYSTEM    = UTC
MEAN_ELEMENT_THEORY = SGP/SGP4

EPOCH          = 2025-12-24T22:49:37.455744
MEAN_MOTION    = 15.53703475
ECCENTRICITY   = .00035293
INCLINATION    = 51.6305
RA_OF_ASC_NODE = 81.5850
ARG_OF_PERICENTER = 283.5602
MEAN_ANOMALY   = 76.4995

EPHEMERIS_TYPE = 0
CLASSIFICATION_TYPE = U
NORAD_CAT_ID   = 66911
ELEMENT_SET_NO = 999
REV_AT_EPOCH   = 350
BSTAR          = .11925494E-2
MEAN_MOTION_DOT = .78033E-3
MEAN_MOTION_DDOT = 0

CCSDS_OMM_VERS = 2.0
CREATION_DATE  = 
ORIGINATOR     = 

OBJECT_NAME    = 1998-067XY
OBJECT_ID      = 1998-067XY
CENTER_NAME    = EARTH
REF_FRAME      = TEME
TIME_SYSTEM    = UTC
MEAN_ELEMENT_THEORY = SGP/SGP4

EPOCH          = 2025-12-25T05:18:48.744000
MEAN_MOTION    = 15.52348997
ECCENTRICITY   = .00038732
INCLINATION    = 51.6320
RA_OF_ASC_NODE = 80.3904
ARG_OF_PERICENTER = 295.0134
MEAN_ANOMALY   = 65.0453

EPHEMERIS_TYPE = 0
CLASSIFICATION_TYPE = U
NORAD_CAT_ID   = 66912
ELEMENT_SET_NO = 999
REV_AT_EPOCH   = 354
BSTAR          = .84033216E-3
MEAN_MOTION_DOT = .52036E-3
MEAN_MOTION_DDOT = 0

CCSDS_OMM_VERS = 2.0
CREATION_DATE  = 
ORIGINATOR     = 

OBJECT_NAME    = 2025-284A
OBJECT_ID      = 2025-284A
CENTER_NAME    = EARTH
REF_FRAME      = TEME
TIME_SYSTEM    = UTC
MEAN_ELEMENT_THEORY = SGP/SGP4

EPOCH          = 2025-12-23T02:34:46.438752
MEAN_MOTION    = 15.08893564
ECCENTRICITY   = .0013475
INCLINATION    = 80.4035
RA_OF_ASC_NODE = 116.7336
ARG_OF_PERICENTER = 259.6514
MEAN_ANOMALY   = 100.3189

EPHEMERIS_TYPE = 0
CLASSIFICATION_TYPE = U
NORAD_CAT_ID   = 66913
ELEMENT_SET_NO = 999
REV_AT_EPOCH   = 269
BSTAR          = .55263602E-3
MEAN_MOTION_DOT = .8748E-4
MEAN_MOTION_DDOT = 0

CCSDS_OMM_VERS = 2.0
CREATION_DATE  = 
ORIGINATOR     = 

OBJECT_NAME    = 2025-284B
OBJECT_ID      = 2025-284B
CENTER_NAME    = EARTH
REF_FRAME      = TEME
TIME_SYSTEM    = UTC
MEAN_ELEMENT_THEORY = SGP/SGP4

EPOCH          = 2025-12-16T06:51:11.417184
MEAN_MOTION    = 15.18985981
ECCENTRICITY   = .00081793
INCLINATION    = 80.4045
RA_OF_ASC_NODE = 125.2713
ARG_OF_PERICENTER = 234.9626
MEAN_ANOMALY   = 125.0834

EPHEMERIS_TYPE = 0
CLASSIFICATION_TYPE = U
NORAD_CAT_ID   = 66914
ELEMENT_SET_NO = 999
REV_AT_EPOCH   = 166
BSTAR          = .38444995E-3
MEAN_MOTION_DOT = .8068E-4
MEAN_MOTION_DDOT = 0

CCSDS_OMM_VERS = 2.0
CREATION_DATE  = 
ORIGINATOR     = 

OBJECT_NAME    = HULIANWANG DIGUI-105
OBJECT_ID      = 2025-285A
CENTER_NAME    = EARTH
REF_FRAME      = TEME
TIME_SYSTEM    = UTC
MEAN_ELEMENT_THEORY = SGP/SGP4

EPOCH          = 2025-12-25T07:17:12.989184
MEAN_MOTION    = 14.03719920
ECCENTRICITY   = .00081194
INCLINATION    = 50.0055
RA_OF_ASC_NODE = 66.1116
ARG_OF_PERICENTER = 324.6615
MEAN_ANOMALY   = 35.3750

EPHEMERIS_TYPE = 0
CLASSIFICATION_TYPE = U
NORAD_CAT_ID   = 66915
ELEMENT_SET_NO = 999
REV_AT_EPOCH   = 267
BSTAR          = .12125035E-3
MEAN_MOTION_DOT = .4E-6
MEAN_MOTION_DDOT = 0

